NORAD_CAT_ID,OBJECT_NAME,OBJECT_TYPE,EPOCH,MEAN_MOTION,ECCENTRICITY,INCLINATION,RA_OF_ASC_NODE,ARG_OF_PERICENTER,MEAN_ANOMALY,BSTAR,MEAN_MOTION_DOT,MEAN_MOTION_DDOT,TLE_LINE0,TLE_LINE1,TLE_LINE2,SEMIMAJOR_AXIS,PERIOD,APOGEE,PERIGEE,DECAYED
53723.0,STARLINK-4705,PAYLOAD,2024-03-13 22:19:12,15.08837212,0.0001621,53.2149,271.8262,82.4,277.7176,6.3601e-05,7.24e-06,0.0,0 STARLINK-4705,1 53723U 22107Z   24073.93000419  .00000724  00000-0  63601-4 0  9997,2 53723  53.2149 271.8262 0001621  82.4000 277.7176 15.08837212 84992,6917.889,95.438,540.875,538.633,0.0
53723.0,STARLINK-4705,PAYLOAD,2024-03-14 06:16:07,15.08846661,3.79e-05,53.2122,270.3397,32.7515,327.35,-1.2535e-05,-4.87e-06,0.0,0 STARLINK-4705,1 53723U 22107Z   24074.26119766 -.00000487  00000-0 -12535-4 0  9998,2 53723  53.2122 270.3397 0000379  32.7515 327.3500 15.08846661 84445,6917.86,95.437,539.987,539.463,0.0
53723.0,STARLINK-4705,PAYLOAD,2024-03-14 22:09:58,15.08846494,0.000108,53.2155,267.3656,77.7314,282.3799,0.00010886,1.445e-05,0.0,0 STARLINK-4705,1 53723U 22107Z   24074.92359577  .00001445  00000-0  10886-3 0  9996,2 53723  53.2155 267.3656 0001080  77.7314 282.3799 15.08846494 85143,6917.861,95.437,540.473,538.978,0.0
53723.0,STARLINK-4705,PAYLOAD,2024-03-15 12:28:27,15.08840168,0.0001238,53.2135,264.6888,84.9708,275.1426,4.4039e-05,4.13e-06,0.0,0 STARLINK-4705,1 53723U 22107Z   24075.51976211  .00000413  00000-0  44039-4 0  9994,2 53723  53.2135 264.6888 0001238  84.9708 275.1426 15.08840168 84632,6917.88,95.438,540.601,538.888,0.0
53723.0,STARLINK-4705,PAYLOAD,2024-03-16 12:19:14,15.08843752,0.0001001,53.2141,260.2261,97.8518,262.2588,6.0886e-05,6.81e-06,0.0,0 STARLINK-4705,1 53723U 22107Z   24076.51335770  .00000681  00000-0  60886-4 0  9999,2 53723  53.2141 260.2261 0001001  97.8518 262.2588 15.08843752 85387,6917.869,95.437,540.426,539.041,0.0
53723.0,STARLINK-4705,PAYLOAD,2024-03-16 18:40:46,15.08854185,0.0001128,53.2155,259.0376,92.675,267.4371,1.4596e-05,-5.5e-07,0.0,0 STARLINK-4705,1 53723U 22107Z   24076.77831352 -.00000055  00000-0  14596-4 0  9997,2 53723  53.2155 259.0376 0001128  92.6750 267.4371 15.08854185 84823,6917.837,95.437,540.482,538.922,0.0
53723.0,STARLINK-4705,PAYLOAD,2024-03-17 12:10:01,15.08839708,0.0001378,53.2174,255.7727,70.9953,289.1188,6.7529e-05,7.87e-06,0.0,0 STARLINK-4705,1 53723U 22107Z   24077.50696191  .00000787  00000-0  67529-4 0  9994,2 53723  53.2174 255.7727 0001378  70.9953 289.1188 15.08839708 84931,6917.881,95.438,540.7,538.793,0.0
53723.0,STARLINK-4705,PAYLOAD,2024-03-17 18:31:34,15.08837908,0.0001318,53.2169,254.581,87.6496,272.4647,4.4565e-05,4.21e-06,0.0,0 STARLINK-4705,1 53723U 22107Z   24077.77192271  .00000421  00000-0  44565-4 0  9993,2 53723  53.2169 254.5810 0001318  87.6496 272.4647 15.08837908 85572,6917.887,95.438,540.664,538.84,0.0
53723.0,STARLINK-4705,PAYLOAD,2024-03-18 12:00:48,15.0883747,0.0001337,53.217,251.3102,89.2029,270.9116,2.3799e-05,9.1e-07,0.0,0 STARLINK-4705,1 53723U 22107Z   24078.50056492  .00000091  00000-0  23799-4 0  9998,2 53723  53.2170 251.3102 0001337  89.2029 270.9116 15.08837470 85684,6917.888,95.438,540.678,538.828,0.0
53723.0,STARLINK-4705,PAYLOAD,2024-03-19 11:51:35,15.0883935,0.0001332,53.2168,246.8495,92.3861,267.7283,0.00010575,1.395e-05,0.0,0 STARLINK-4705,1 53723U 22107Z   24079.49416386  .00001395  00000-0  10575-3 0  9994,2 53723  53.2168 246.8495 0001332  92.3861 267.7283 15.08839350 85834,6917.882,95.438,540.669,538.826,0.0
53723.0,STARLINK-4705,PAYLOAD,2024-03-20 16:28:32,15.08834467,0.0001551,53.217,241.4947,105.4238,254.6926,5.2538e-05,5.48e-06,0.0,0 STARLINK-4705,1 53723U 22107Z   24080.68649267  .00000548  00000-0  52538-4 0  9998,2 53723  53.2170 241.4947 0001551 105.4238 254.6926 15.08834467 85414,6917.897,95.438,540.835,538.689,0.0
53723.0,STARLINK-4705,PAYLOAD,2024-03-21 14:43:56,15.0884807,0.0001531,53.2161,237.3328,91.6544,268.4623,4.301e-05,3.97e-06,0.0,0 STARLINK-4705,1 53723U 22107Z   24081.61384516  .00000397  00000-0  43010-4 0  9992,2 53723  53.2161 237.3328 0001531  91.6544 268.4623 15.08848070 86159,6917.856,95.437,540.78,538.662,0.0
53723.0,STARLINK-4705,PAYLOAD,2024-03-21 19:30:04,15.08857971,0.0001279,53.2155,236.4358,107.3083,252.8049,0.00031636,4.753e-05,0.0,0 STARLINK-4705,1 53723U 22107Z   24081.81255632  .00004753  00000-0  31636-3 0  9990,2 53723  53.2155 236.4358 0001279 107.3083 252.8049 15.08857971 85582,6917.825,95.436,540.575,538.806,0.0
53723.0,STARLINK-4705,PAYLOAD,2024-03-22 09:48:34,15.08843702,0.0001412,53.2154,233.7647,72.7915,287.3231,0.00015103,2.117e-05,0.0,0 STARLINK-4705,1 53723U 22107Z   24082.40872748  .00002117  00000-0  15103-3 0  9992,2 53723  53.2154 233.7647 0001412  72.7915 287.3231 15.08843702 85673,6917.869,95.437,540.711,538.757,0.0
53723.0,STARLINK-4705,PAYLOAD,2024-03-22 14:34:42,15.08849599,0.000165,53.2153,232.8706,115.3994,244.7169,0.00020671,3.004e-05,0.0,0 STARLINK-4705,1 53723U 22107Z   24082.60744125  .00003004  00000-0  20671-3 0  9993,2 53723  53.2153 232.8706 0001650 115.3994 244.7169 15.08849599 86301,6917.851,95.437,540.857,538.575,0.0
53723.0,STARLINK-4705,PAYLOAD,2024-03-22 19:20:52,15.08861046,0.0001713,53.216,231.9789,94.4396,265.6792,0.00041561,6.336e-05,0.0,0 STARLINK-4705,1 53723U 22107Z   24082.80615825  .00006336  00000-0  41561-3 0  9991,2 53723  53.2160 231.9789 0001713  94.4396 265.6792 15.08861046 85734,6917.816,95.436,540.866,538.496,0.0
53723.0,STARLINK-4705,PAYLOAD,2024-03-23 16:00:53,15.08838964,0.0001475,53.2152,228.1106,90.8972,269.2189,1.3534e-05,-7.3e-07,0.0,0 STARLINK-4705,1 53723U 22107Z   24083.66728632 -.00000073  00000-0  13534-4 0  9990,2 53723  53.2152 228.1106 0001475  90.8972 269.2189 15.08838964 85868,6917.884,95.438,540.769,538.728,0.0
53723.0,STARLINK-4705,PAYLOAD,2024-03-24 14:16:17,15.08849273,0.0001422,53.2155,223.9463,83.0484,277.067,0.00045244,6.922e-05,0.0,0 STARLINK-4705,1 53723U 22107Z   24084.59464264  .00006922  00000-0  45244-3 0  9991,2 53723  53.2155 223.9463 0001422  83.0484 277.0670 15.08849273 86604,6917.852,95.437,540.701,538.733,0.0
53723.0,STARLINK-4705,PAYLOAD,2024-03-24 19:02:26,15.08874994,0.0001195,53.2149,223.0514,84.056,276.0568,0.0018811,0.00029805,0.0,0 STARLINK-4705,1 53723U 22107Z   24084.79336207  .00029805  00000-0  18811-2 0  9992,2 53723  53.2149 223.0514 0001195  84.0560 276.0568 15.08874994 86038,6917.773,95.435,540.465,538.812,0.0
53723.0,STARLINK-4705,PAYLOAD,2024-03-25 12:31:41,15.08838924,0.0001318,53.2162,219.787,61.6112,298.5013,0.00019451,2.809e-05,0.0,0 STARLINK-4705,1 53723U 22107Z   24085.52200776  .00002809  00000-0  19451-3 0  9992,2 53723  53.2162 219.7870 0001318  61.6112 298.5013 15.08838924 86140,6917.884,95.438,540.66,538.837,0.0
53723.0,STARLINK-4705,PAYLOAD,2024-03-25 15:42:27,15.08851569,0.0001339,53.2157,219.1904,91.287,268.8275,0.00049307,7.57e-05,0.0,0 STARLINK-4705,1 53723U 22107Z   24085.65448510  .00007570  00000-0  49307-3 0  9999,2 53723  53.2157 219.1904 0001339  91.2870 268.8275 15.08851569 86767,6917.845,95.437,540.636,538.784,0.0
53723.0,STARLINK-4705,PAYLOAD,2024-03-26 12:22:29,15.08814356,0.0001278,53.2154,215.3228,98.4912,261.6225,0.0006627,0.00010267,0.0,0 STARLINK-4705,1 53723U 22107Z   24086.51562076  .00010267  00000-0  66270-3 0  9994,2 53723  53.2154 215.3228 0001278  98.4912 261.6225 15.08814356 86296,6917.959,95.439,540.708,538.94,0.0
53723.0,STARLINK-4705,PAYLOAD,2024-03-26 13:57:52,15.08816325,0.000129,53.2155,215.0257,100.6038,259.5099,0.00078547,0.00012227,0.0,0 STARLINK-4705,1 53723U 22107Z   24086.58186196  .00012227  00000-0  78547-3 0  9994,2 53723  53.2155 215.0257 0001290 100.6038 259.5099 15.08816325 86906,6917.953,95.439,540.71,538.925,0.0
53723.0,STARLINK-4705,PAYLOAD,2024-03-26 15:33:16,15.08819272,0.0001141,53.2151,214.7309,91.5741,268.5382,0.00099723,0.0001561,0.0,0 STARLINK-4705,1 53723U 22107Z   24086.64810370  .00015610  00000-0  99723-3 0  9997,2 53723  53.2151 214.7309 0001141  91.5741 268.5382 15.08819272 86910,6917.944,95.439,540.598,539.019,0.0
53723.0,STARLINK-4705,PAYLOAD,2024-03-27 01:05:34,15.08838843,0.0001368,53.2169,212.948,104.1601,255.9543,0.00081278,0.00012671,0.0,0 STARLINK-4705,1 53723U 22107Z   24087.04554265  .00012671  00000-0  81278-3 0  9990,2 53723  53.2169 212.9480 0001368 104.1601 255.9543 15.08838843 86370,6917.884,95.438,540.695,538.803,0.0
53723.0,STARLINK-4705,PAYLOAD,2024-03-27 15:24:02,15.08873316,0.0001321,53.2166,210.2731,105.9803,254.1335,0.0013761,0.000217,0.0,0 STARLINK-4705,1 53723U 22107Z   24087.64169353  .00021700  00000-0  13761-2 0  9990,2 53723  53.2166 210.2731 0001321 105.9803 254.1335 15.08873316 87060,6917.779,95.435,540.557,538.73,0.0
53723.0,STARLINK-4705,PAYLOAD,2024-03-28 00:56:20,15.08861572,0.0001289,53.2156,208.4871,92.3748,267.7391,0.00060966,9.434e-05,0.0,0 STARLINK-4705,1 53723U 22107Z   24088.03913176  .00009434  00000-0  60966-3 0  9994,2 53723  53.2156 208.4871 0001289  92.3748 267.7391 15.08861572 86526,6917.814,95.436,540.571,538.788,0.0
53723.0,STARLINK-4705,PAYLOAD,2024-03-28 18:25:35,15.08847169,0.0001874,53.2155,205.2171,95.9485,264.172,0.00052321,8.05e-05,0.0,0 STARLINK-4705,1 53723U 22107Z   24088.76777577  .00008050  00000-0  52321-3 0  9996,2 53723  53.2155 205.2171 0001874  95.9485 264.1720 15.08847169 86635,6917.858,95.437,541.02,538.427,0.0
53723.0,STARLINK-4705,PAYLOAD,2024-03-29 11:54:50,15.0884119,0.000237,53.215,201.9447,86.4315,273.6948,0.00059489,9.193e-05,0.0,0 STARLINK-4705,1 53723U 22107Z   24089.49642234  .00009193  00000-0  59489-3 0  9999,2 53723  53.2150 201.9447 0002370  86.4315 273.6948 15.08841190 86745,6917.877,95.437,541.381,538.102,0.0
53723.0,STARLINK-4705,PAYLOAD,2024-03-30 00:37:55,15.08837143,0.0001787,53.2152,199.5654,96.1967,263.9229,0.00029269,4.373e-05,0.0,0 STARLINK-4705,1 53723U 22107Z   24090.02634251  .00004373  00000-0  29269-3 0  9998,2 53723  53.2152 199.5654 0001787  96.1967 263.9229 15.08837143 86827,6917.889,95.438,540.99,538.518,0.0
